CCSDS_OMM_VERS,COMMENT,CREATION_DATE,ORIGINATOR,OBJECT_NAME,OBJECT_ID,CENTER_NAME,REF_FRAME,TIME_SYSTEM,MEAN_ELEMENT_THEORY,EPOCH,MEAN_MOTION,ECCENTRICITY,INCLINATION,RA_OF_ASC_NODE,ARG_OF_PERICENTER,MEAN_ANOMALY,EPHEMERIS_TYPE,CLASSIFICATION_TYPE,NORAD_CAT_ID,ELEMENT_SET_NO,REV_AT_EPOCH,BSTAR,MEAN_MOTION_DOT,MEAN_MOTION_DDOT,SEMIMAJOR_AXIS,PERIOD,APOAPSIS,PERIAPSIS,OBJECT_TYPE,RCS_SIZE,COUNTRY_CODE,LAUNCH_DATE,SITE,DECAY_DATE,FILE,GP_ID,TLE_LINE0,TLE_LINE1,TLE_LINE2
"3.0","GENERATED VIA SPACE-TRACK.ORG API","2026-03-25T17:29:05","18 SPCS","FENGYUN 1C DEB","1999-025AEY","EARTH","TEME","UTC","SGP4","2026-03-25T08:43:05.100672","14.93434138","0.00331041","98.9089","122.2952","133.5702","349.2182","0","U","30437","999","714","0.00178728530000","0.00018956","0.0000000000000","6965.374","96.422","610.297","564.181","DEBRIS","SMALL","PRC","1999-05-10","TSC","","5096884","317009246","0 FENGYUN 1C DEB","1 30437U 99025AEY 26084.36325348  .00018956  00000-0  17873-2 0  9993","2 30437  98.9089 122.2952 0033104 133.5702 349.2182 14.93434138  7148"
"3.0","GENERATED VIA SPACE-TRACK.ORG API","2026-03-24T15:36:47","18 SPCS","FENGYUN 1C DEB","1999-025AFJ","EARTH","TEME","UTC","SGP4","2026-03-24T04:50:35.666016","14.59072106","0.00577070","98.9688","317.6700","82.2367","45.6194","0","U","30447","999","99574","0.00164160000000","0.00007852","0.0000000000000","7074.309","98.693","736.997","655.350","DEBRIS","SMALL","PRC","1999-05-10","TSC","","5096537","316964551","0 FENGYUN 1C DEB","1 30447U 99025AFJ 26083.20180169  .00007852  00000-0  16416-2 0  9991","2 30447  98.9688 317.6700 0057707  82.2367  45.6194 14.59072106995744"
"3.0","GENERATED VIA SPACE-TRACK.ORG API","2026-03-25T17:29:05","18 SPCS","FENGYUN 1C DEB","1999-025AFP","EARTH","TEME","UTC","SGP4","2026-03-25T09:17:37.759776","14.69416399","0.00437896","99.3262","242.0778","295.9156","127.2445","0","U","30452","999","99612","0.00248809700000","0.00014907","0.0000000000000","7041.069","97.998","693.766","632.101","DEBRIS","SMALL","PRC","1999-05-10","TSC","","5096884","317008751","0 FENGYUN 1C DEB","1 30452U 99025AFP 26084.38724259  .00014907  00000-0  24881-2 0  9995","2 30452  99.3262 242.0778 0043790 295.9156 127.2445 14.69416399996121"
"3.0","GENERATED VIA SPACE-TRACK.ORG API","2026-03-25T04:32:27","18 SPCS","FENGYUN 1C DEB","1999-025AGK","EARTH","TEME","UTC","SGP4","2026-03-24T21:32:40.327872","14.56194447","0.00387056","98.6477","193.5443","127.9934","356.5915","0","U","30472","999","99526","0.00193074100000","0.00008576","0.0000000000000","7083.626","98.888","732.908","678.073","DEBRIS","SMALL","PRC","1999-05-10","TSC","","5096755","316976063","0 FENGYUN 1C DEB","1 30472U 99025AGK 26083.89768898  .00008576  00000-0  19307-2 0  9991","2 30472  98.6477 193.5443 0038706 127.9934 356.5915 14.56194447995267"
"3.0","GENERATED VIA SPACE-TRACK.ORG API","2026-03-25T17:29:05","18 SPCS","FENGYUN 1C DEB","1999-025AKS","EARTH","TEME","UTC","SGP4","2026-03-25T09:00:50.550912","14.57848596","0.00120266","98.8383","227.0968","294.6505","65.3439","0","U","30552","999","99146","0.00244112820000","0.00011154","0.0000000000000","7078.266","98.776","708.644","691.618","DEBRIS","SMALL","PRC","1999-05-10","TSC","","5096884","317008782","0 FENGYUN 1C DEB","1 30552U 99025AKS 26084.37558508  .00011154  00000-0  24411-2 0  9997","2 30552  98.8383 227.0968 0012027 294.6505  65.3439 14.57848596991469"
"3.0","GENERATED VIA SPACE-TRACK.ORG API","2026-03-25T04:32:27","18 SPCS","FENGYUN 1C DEB","1999-025AKT","EARTH","TEME","UTC","SGP4","2026-03-24T18:11:48.762528","14.77246243","0.00202697","99.1219","196.5159","187.5369","172.5536","0","U","30553","999","99977","0.00252316520000","0.00017926","0.0000000000000","7016.167","97.479","652.253","623.810","DEBRIS","SMALL","PRC","1999-05-10","TSC","","5096755","316976089","0 FENGYUN 1C DEB","1 30553U 99025AKT 26083.75820327  .00017926  00000-0  25232-2 0  9995","2 30553  99.1219 196.5159 0020270 187.5369 172.5536 14.77246243999775"
"3.0","GENERATED VIA SPACE-TRACK.ORG API","2026-03-25T17:29:05","18 SPCS","FENGYUN 1C DEB","1999-025ALJ","EARTH","TEME","UTC","SGP4","2026-03-25T07:05:24.588672","14.58219623","0.00171576","98.9483","266.9437","233.6124","299.6515","0","U","30568","999","99152","0.00211205620000","0.00009728","0.0000000000000","7077.066","98.751","711.073","686.788","DEBRIS","SMALL","PRC","1999-05-10","TSC","","5096884","317009289","0 FENGYUN 1C DEB","1 30568U 99025ALJ 26084.29542348  .00009728  00000-0  21121-2 0  9999","2 30568  98.9483 266.9437 0017158 233.6124 299.6515 14.58219623991529"
"3.0","GENERATED VIA SPACE-TRACK.ORG API","2026-03-25T17:29:05","18 SPCS","FENGYUN 1C DEB","1999-025ALK","EARTH","TEME","UTC","SGP4","2026-03-25T08:50:50.729280","14.80016606","0.00069951","98.7397","236.7403","142.3067","217.8634","0","U","30569","999","99721","0.00327337420000","0.00024806","0.0000000000000","7007.409","97.296","634.175","624.372","DEBRIS","SMALL","PRC","1999-05-10","TSC","","5096884","317008789","0 FENGYUN 1C DEB","1 30569U 99025ALK 26084.36864270  .00024806  00000-0  32734-2 0  9995","2 30569  98.7397 236.7403 0006995 142.3067 217.8634 14.80016606997216"
"3.0","GENERATED VIA SPACE-TRACK.ORG API","2026-03-25T17:29:05","18 SPCS","FENGYUN 1C DEB","1999-025ANF","EARTH","TEME","UTC","SGP4","2026-03-24T23:46:44.954112","14.68072594","0.00152785","98.8774","179.1784","313.7131","46.2805","0","U","30624","999","98993","0.00311681060000","0.00017910","0.0000000000000","7045.365","98.088","677.994","656.466","DEBRIS","SMALL","PRC","1999-05-10","TSC","","5096884","317009303","0 FENGYUN 1C DEB","1 30624U 99025ANF 26083.99079808  .00017910  00000-0  31168-2 0  9998","2 30624  98.8774 179.1784 0015278 313.7131  46.2805 14.68072594989938"
"3.0","GENERATED VIA SPACE-TRACK.ORG API","2026-03-25T17:29:05","18 SPCS","FENGYUN 1C DEB","1999-025ANK","EARTH","TEME","UTC","SGP4","2026-03-25T06:58:40.737792","14.72711791","0.00209120","99.3414","19.9092","295.2584","64.6452","0","U","30628","999","99978","0.00232490890000","0.00014851","0.0000000000000","7030.561","97.779","667.129","637.724","DEBRIS","SMALL","PRC","1999-05-10","TSC","","5096884","317009304","0 FENGYUN 1C DEB","1 30628U 99025ANK 26084.29074928  .00014851  00000-0  23249-2 0  9996","2 30628  99.3414  19.9092 0020912 295.2584  64.6452 14.72711791999789"
"3.0","GENERATED VIA SPACE-TRACK.ORG API","2026-03-25T17:29:05","18 SPCS","FENGYUN 1C DEB","1999-025ANL","EARTH","TEME","UTC","SGP4","2026-03-25T14:25:51.536352","14.63299299","0.00075864","99.2456","197.5912","213.7296","272.1243","0","U","30629","999","99392","0.00274210820000","0.00014124","0.0000000000000","7060.678","98.408","687.899","677.186","DEBRIS","SMALL","PRC","1999-05-10","TSC","","5096884","317008804","0 FENGYUN 1C DEB","1 30629U 99025ANL 26084.60129093  .00014124  00000-0  27421-2 0  9995","2 30629  99.2456 197.5912 0007586 213.7296 272.1243 14.63299299993924"
"3.0","GENERATED VIA SPACE-TRACK.ORG API","2026-03-25T17:29:05","18 SPCS","FENGYUN 1C DEB","1999-025ANP","EARTH","TEME","UTC","SGP4","2026-03-25T08:42:39.864096","14.67876248","0.00169139","98.8264","228.1917","202.9036","211.2042","0","U","30632","999","99194","0.00350994580000","0.00020102","0.0000000000000","7045.993","98.101","679.776","655.941","DEBRIS","SMALL","PRC","1999-05-10","TSC","","5096884","317008805","0 FENGYUN 1C DEB","1 30632U 99025ANP 26084.36296139  .00020102  00000-0  35099-2 0  9991","2 30632  98.8264 228.1917 0016914 202.9036 211.2042 14.67876248991943"
"3.0","GENERATED VIA SPACE-TRACK.ORG API","2026-03-24T04:52:42","18 SPCS","FENGYUN 1C DEB","1999-025APE","EARTH","TEME","UTC","SGP4","2026-03-23T18:45:21.515328","14.59303047","0.00260089","98.9939","27.9111","230.5160","159.5856","0","U","30647","999","99461","0.00222756450000","0.00010537","0.0000000000000","7073.562","98.677","713.825","677.030","DEBRIS","SMALL","PRC","1999-05-10","TSC","","5095836","316891433","0 FENGYUN 1C DEB","1 30647U 99025APE 26082.78149902  .00010537  00000-0  22276-2 0  9990","2 30647  98.9939  27.9111 0026009 230.5160 159.5856 14.59303047994618"
"3.0","GENERATED VIA SPACE-TRACK.ORG API","2026-03-25T17:29:05","18 SPCS","FENGYUN 1C DEB","1999-025ARH","EARTH","TEME","UTC","SGP4","2026-03-25T01:46:48.827136","14.48977158","0.00015003","99.3150","218.8714","288.0762","72.0265","0","U","30699","999","99094","0.00184818740000","0.00006960","0.0000000000000","7107.128","99.380","730.059","727.927","DEBRIS","SMALL","PRC","1999-05-10","TSC","","5096884","317009328","0 FENGYUN 1C DEB","1 30699U 99025ARH 26084.07417624  .00006960  00000-0  18482-2 0  9999","2 30699  99.3150 218.8714 0001500 288.0762  72.0265 14.48977158990943"
"3.0","GENERATED VIA SPACE-TRACK.ORG API","2026-03-25T17:29:05","18 SPCS","FENGYUN 1C DEB","1999-025ASA","EARTH","TEME","UTC","SGP4","2026-03-25T12:12:00.224352","14.86689208","0.00182351","98.8734","283.8186","123.9596","266.2480","0","U","30716","999","99347","0.00344476170000","0.00030769","0.0000000000000","6986.426","96.860","621.031","595.551","DEBRIS","SMALL","PRC","1999-05-10","TSC","","5096884","317009335","0 FENGYUN 1C DEB","1 30716U 99025ASA 26084.50833593  .00030769  00000-0  34448-2 0  9998","2 30716  98.8734 283.8186 0018235 123.9596 266.2480 14.86689208993470"
"3.0","GENERATED VIA SPACE-TRACK.ORG API","2026-03-25T17:29:05","18 SPCS","FENGYUN 1C DEB","1999-025ASD","EARTH","TEME","UTC","SGP4","2026-03-25T09:33:05.232672","14.63380633","0.00114663","98.8905","238.7425","224.8766","135.1508","0","U","30719","999","98948","0.00272751710000","0.00014084","0.0000000000000","7060.416","98.402","690.377","674.186","DEBRIS","SMALL","PRC","1999-05-10","TSC","","5096884","317008836","0 FENGYUN 1C DEB","1 30719U 99025ASD 26084.39797723  .00014084  00000-0  27275-2 0  9994","2 30719  98.8905 238.7425 0011466 224.8766 135.1508 14.63380633989483"
